COSMOS 2251 DEB         
1 34629U 93036XA  17345.15499215  .00002045  00000-0  20556-3 0  9993
2 34629  73.7799 154.5489 0062418 125.1256 235.5797 14.90596030471396
